NORAD_CAT_ID,OBJECT_NAME,OBJECT_TYPE,EPOCH,MEAN_MOTION,ECCENTRICITY,INCLINATION,RA_OF_ASC_NODE,ARG_OF_PERICENTER,MEAN_ANOMALY,BSTAR,MEAN_MOTION_DOT,MEAN_MOTION_DDOT,TLE_LINE0,TLE_LINE1,TLE_LINE2,SEMIMAJOR_AXIS,PERIOD,APOGEE,PERIGEE,DECAYED
53161.0,STARLINK-4055,PAYLOAD,2024-06-09 16:09:33,15.08843536,0.0001555,53.2169,148.2892,95.1713,264.9456,-5.6424e-05,-1.186e-05,0.0,0 STARLINK-4055,1 53161U 22083AF  24161.67329908 -.00001186  00000-0 -56424-4 0  9992,2 53161  53.2169 148.2892 0001555  95.1713 264.9456 15.08843536105049,6917.87,95.437,540.81,538.659,0.0
53161.0,STARLINK-4055,PAYLOAD,2024-06-10 04:52:37,15.08844313,0.0001586,53.2165,145.91,102.8524,257.2645,4.6148e-05,4.47e-06,0.0,0 STARLINK-4055,1 53161U 22083AF  24162.20321597  .00000447  00000-0  46148-4 0  9997,2 53161  53.2165 145.9100 0001586 102.8524 257.2645 15.08844313105758,6917.867,95.437,540.829,538.635,0.0
53161.0,STARLINK-4055,PAYLOAD,2024-06-10 06:28:00,15.08844329,0.0001499,53.216,145.6124,96.524,263.5923,4.9971e-05,5.07e-06,0.0,0 STARLINK-4055,1 53161U 22083AF  24162.26945568  .00000507  00000-0  49971-4 0  9997,2 53161  53.2160 145.6124 0001499  96.5240 263.5923 15.08844329105131,6917.867,95.437,540.769,538.695,0.0
53161.0,STARLINK-4055,PAYLOAD,2024-06-10 16:00:19,15.08841542,0.0001475,53.216,143.8275,93.5418,266.5743,2.2501e-05,7e-07,0.0,0 STARLINK-4055,1 53161U 22083AF  24162.66689801  .00000070  00000-0  22501-4 0  9991,2 53161  53.2160 143.8275 0001475  93.5418 266.5743 15.08841542105199,6917.876,95.437,540.761,538.72,0.0
53161.0,STARLINK-4055,PAYLOAD,2024-06-11 04:43:25,15.08838072,0.0001386,53.2153,141.4478,95.2146,264.9004,9.1984e-05,1.176e-05,0.0,0 STARLINK-4055,1 53161U 22083AF  24163.19682004  .00001176  00000-0  91984-4 0  9997,2 53161  53.2153 141.4478 0001386  95.2146 264.9004 15.08838072105903,6917.886,95.438,540.71,538.792,0.0
53161.0,STARLINK-4055,PAYLOAD,2024-06-11 06:18:48,15.08839803,0.0001427,53.2157,141.1507,94.4335,265.6821,0.00010546,1.391e-05,0.0,0 STARLINK-4055,1 53161U 22083AF  24163.26305891  .00001391  00000-0  10546-3 0  9994,2 53161  53.2157 141.1507 0001427  94.4335 265.6821 15.08839803105283,6917.881,95.438,540.733,538.759,0.0
53161.0,STARLINK-4055,PAYLOAD,2024-06-12 04:34:11,15.08850401,0.0001376,53.2171,136.989,86.4247,273.6902,0.00012947,1.774e-05,0.0,0 STARLINK-4055,1 53161U 22083AF  24164.19041170  .00001774  00000-0  12947-3 0  9996,2 53161  53.2171 136.9890 0001376  86.4247 273.6902 15.08850401106054,6917.849,95.437,540.665,538.762,0.0
53161.0,STARLINK-4055,PAYLOAD,2024-06-12 15:41:54,15.08838798,0.0001418,53.2177,134.9065,89.057,271.0585,4.0763e-05,3.61e-06,0.0,0 STARLINK-4055,1 53161U 22083AF  24164.65410061  .00000361  00000-0  40763-4 0  9995,2 53161  53.2177 134.9065 0001418  89.0570 271.0585 15.08838798106129,6917.884,95.438,540.73,538.768,0.0
53161.0,STARLINK-4055,PAYLOAD,2024-06-12 22:03:27,15.08835138,0.0001273,53.2177,133.7181,89.4631,270.6507,5.3211e-05,5.59e-06,0.0,0 STARLINK-4055,1 53161U 22083AF  24164.91906266  .00000559  00000-0  53211-4 0  9992,2 53161  53.2177 133.7181 0001273  89.4631 270.6507 15.08835138105534,6917.895,95.438,540.641,538.88,0.0
53161.0,STARLINK-4055,PAYLOAD,2024-06-13 04:24:59,15.08838971,0.0001359,53.2162,132.5267,95.7044,264.4104,1.8205e-05,2e-08,0.0,0 STARLINK-4055,1 53161U 22083AF  24165.18402193  .00000002  00000-0  18205-4 0  9999,2 53161  53.2162 132.5267 0001359  95.7044 264.4104 15.08838971105579,6917.884,95.438,540.689,538.808,0.0
53161.0,STARLINK-4055,PAYLOAD,2024-06-14 04:15:46,15.08845835,0.0001348,53.2168,128.066,95.1468,264.9678,1.5358e-05,-4.3e-07,0.0,0 STARLINK-4055,1 53161U 22083AF  24166.17761961 -.00000043  00000-0  15358-4 0  9992,2 53161  53.2168 128.0660 0001348  95.1468 264.9678 15.08845835105729,6917.863,95.437,540.66,538.795,0.0
53161.0,STARLINK-4055,PAYLOAD,2024-06-14 21:45:01,15.08835162,0.000131,53.2165,124.7948,98.6537,261.4604,6.221e-05,7.02e-06,0.0,0 STARLINK-4055,1 53161U 22083AF  24166.90626503  .00000702  00000-0  62210-4 0  9995,2 53161  53.2165 124.7948 0001310  98.6537 261.4604 15.08835162106467,6917.895,95.438,540.666,538.854,0.0
53161.0,STARLINK-4055,PAYLOAD,2024-06-15 04:06:33,15.08840389,0.0001257,53.2164,123.6069,96.8107,263.3029,9.9024e-05,1.288e-05,0.0,0 STARLINK-4055,1 53161U 22083AF  24167.17122158  .00001288  00000-0  99024-4 0  9995,2 53161  53.2164 123.6069 0001257  96.8107 263.3029 15.08840389105874,6917.879,95.438,540.614,538.875,0.0
53161.0,STARLINK-4055,PAYLOAD,2024-06-15 20:00:25,15.08839557,0.0001316,53.2167,120.6356,101.3827,258.7313,5.8473e-05,6.43e-06,0.0,0 STARLINK-4055,1 53161U 22083AF  24167.83362424  .00000643  00000-0  58473-4 0  9997,2 53161  53.2167 120.6356 0001316 101.3827 258.7313 15.08839557105970,6917.882,95.438,540.657,538.836,0.0
53161.0,STARLINK-4055,PAYLOAD,2024-06-16 13:29:39,15.08838659,0.0001302,53.2167,117.3624,92.6887,267.4254,5.0092e-05,5.09e-06,0.0,0 STARLINK-4055,1 53161U 22083AF  24168.56226580  .00000509  00000-0  50092-4 0  9990,2 53161  53.2167 117.3624 0001302  92.6887 267.4254 15.08838659106080,6917.884,95.438,540.65,538.849,0.0
53161.0,STARLINK-4055,PAYLOAD,2024-06-17 13:20:27,15.08838863,0.0001582,53.2181,112.9045,90.0443,270.073,2.1617e-06,-2.54e-06,0.0,0 STARLINK-4055,1 53161U 22083AF  24169.55587073 -.00000254  00000-0  21617-5 0  9997,2 53161  53.2181 112.9045 0001582  90.0443 270.0730 15.08838863106237,6917.884,95.438,540.843,538.654,0.0
53161.0,STARLINK-4055,PAYLOAD,2024-06-18 03:38:55,15.0884313,0.0001578,53.2178,110.2243,84.8536,275.2636,4.0163e-05,3.51e-06,0.0,0 STARLINK-4055,1 53161U 22083AF  24170.15202798  .00000351  00000-0  40163-4 0  9996,2 53161  53.2178 110.2243 0001578  84.8536 275.2636 15.08843130106957,6917.871,95.437,540.827,538.644,0.0
53161.0,STARLINK-4055,PAYLOAD,2024-06-18 13:11:13,15.0884618,0.0001517,53.2173,108.4428,88.1626,271.954,4.9305e-05,4.97e-06,0.0,0 STARLINK-4055,1 53161U 22083AF  24170.54946502  .00000497  00000-0  49305-4 0  9995,2 53161  53.2173 108.4428 0001517  88.1626 271.9540 15.08846180106388,6917.861,95.437,540.776,538.677,0.0
53161.0,STARLINK-4055,PAYLOAD,2024-06-19 05:05:04,15.08848982,0.0001427,53.216,105.4689,84.5751,275.5404,0.00015116,2.119e-05,0.0,0 STARLINK-4055,1 53161U 22083AF  24171.21185981  .00002119  00000-0  15116-3 0  9991,2 53161  53.2160 105.4689 0001427  84.5751 275.5404 15.08848982107112,6917.853,95.437,540.705,538.731,0.0
53161.0,STARLINK-4055,PAYLOAD,2024-06-19 13:02:01,15.08835807,0.0001434,53.2179,103.9753,94.8503,265.2653,1.492e-05,-5.1e-07,0.0,0 STARLINK-4055,1 53161U 22083AF  24171.54307099 -.00000051  00000-0  14920-4 0  9990,2 53161  53.2179 103.9753 0001434  94.8503 265.2653 15.08835807107163,6917.893,95.438,540.75,538.766,0.0
53161.0,STARLINK-4055,PAYLOAD,2024-06-20 01:45:06,15.08838048,0.0001355,53.2166,101.5979,102.0757,258.0387,-3.0692e-05,-7.76e-06,0.0,0 STARLINK-4055,1 53161U 22083AF  24172.07299131 -.00000776  00000-0 -30692-4 0  9995,2 53161  53.2166 101.5979 0001355 102.0757 258.0387 15.08838048106611,6917.886,95.438,540.689,538.814,0.0
53161.0,STARLINK-4055,PAYLOAD,2024-06-20 22:25:06,15.08843143,0.0001358,53.2161,97.7355,90.9276,269.1872,2.839e-05,1.64e-06,0.0,0 STARLINK-4055,1 53161U 22083AF  24172.93410730  .00000164  00000-0  28390-4 0  9991,2 53161  53.2161  97.7355 0001358  90.9276 269.1872 15.08843143106742,6917.871,95.437,540.675,538.796,0.0
53161.0,STARLINK-4055,PAYLOAD,2024-06-21 00:00:29,15.08845085,0.0001412,53.2166,97.4367,94.9027,265.2127,3.7545e-05,3.1e-06,0.0,0 STARLINK-4055,1 53161U 22083AF  24173.00034564  .00000310  00000-0  37545-4 0  9992,2 53161  53.2166  97.4367 0001412  94.9027 265.2127 15.08845085107384,6917.865,95.437,540.707,538.753,0.0
53161.0,STARLINK-4055,PAYLOAD,2024-06-21 04:46:39,15.08847198,0.0001476,53.2166,96.5444,114.7567,245.3579,5.117e-05,5.27e-06,0.0,0 STARLINK-4055,1 53161U 22083AF  24173.19906283  .00000527  00000-0  51170-4 0  9998,2 53161  53.2166  96.5444 0001476 114.7567 245.3579 15.08847198106780,6917.858,95.437,540.744,538.702,0.0
53161.0,STARLINK-4055,PAYLOAD,2024-06-21 22:15:54,15.08835597,0.0001397,53.2167,93.2733,96.5745,263.5406,8.0963e-05,1.001e-05,0.0,0 STARLINK-4055,1 53161U 22083AF  24173.92771109  .00001001  00000-0  80963-4 0  9996,2 53161  53.2167  93.2733 0001397  96.5745 263.5406 15.08835597106896,6917.894,95.438,540.725,538.792,0.0
53161.0,STARLINK-4055,PAYLOAD,2024-06-22 04:37:26,15.08839179,0.0001415,53.2169,92.0834,97.4958,262.6195,9.934e-05,1.293e-05,0.0,0 STARLINK-4055,1 53161U 22083AF  24174.19266889  .00001293  00000-0  99340-4 0  9992,2 53161  53.2169  92.0834 0001415  97.4958 262.6195 15.08839179107564,6917.883,95.438,540.727,538.769,0.0
53161.0,STARLINK-4055,PAYLOAD,2024-06-22 22:06:41,15.08838389,0.0001388,53.2167,88.8113,97.9691,262.1459,-1.6152e-05,-5.45e-06,0.0,0 STARLINK-4055,1 53161U 22083AF  24174.92131398 -.00000545  00000-0 -16152-4 0  9990,2 53161  53.2167  88.8113 0001388  97.9691 262.1459 15.08838389107046,6917.885,95.438,540.711,538.79,0.0
53161.0,STARLINK-4055,PAYLOAD,2024-06-23 01:17:27,15.08838189,0.0001375,53.2172,88.2167,97.1233,262.9916,-2.4871e-05,-6.84e-06,0.0,0 STARLINK-4055,1 53161U 22083AF  24175.05379425 -.00000684  00000-0 -24871-4 0  9991,2 53161  53.2172  88.2167 0001375  97.1233 262.9916 15.08838189107690,6917.886,95.438,540.702,538.8,0.0
53161.0,STARLINK-4055,PAYLOAD,2024-06-23 21:57:28,15.08839365,0.0001248,53.217,84.3485,94.5333,265.5802,6.4038e-05,7.31e-06,0.0,0 STARLINK-4055,1 53161U 22083AF  24175.91491109  .00000731  00000-0  64038-4 0  9990,2 53161  53.2170  84.3485 0001248  94.5333 265.5802 15.08839365107194,6917.882,95.438,540.611,538.884,0.0
53161.0,STARLINK-4055,PAYLOAD,2024-06-24 21:48:15,15.08836282,0.0001162,53.2173,79.8891,88.1001,272.0124,4.7425e-05,4.67e-06,0.0,0 STARLINK-4055,1 53161U 22083AF  24176.90851579  .00000467  00000-0  47425-4 0  9998,2 53161  53.2173  79.8891 0001162  88.1001 272.0124 15.08836282107345,6917.892,95.438,540.561,538.953,0.0
